ONEWEB-0181             
1 48230U 21031W   26034.20376354 -.00000088  00000+0 -27107-3 0  9996
2 48230  87.9017 316.4498 0001715  85.1242 275.0084 13.14503967230631
ONEWEB-0188             
1 48231U 21031X   26034.24181408  .00000172  00000+0  43044-3 0  9995
2 48231  87.9022 316.4401 0001773  79.4405 280.6924 13.14502040230549
ONEWEB-0220             
1 48232U 21031Y   26034.20533892 -.00000015  00000+0 -75254-4 0  9997
2 48232  87.9033 316.4021 0001922  83.0505 277.0843 13.14503045230803
ONEWEB-0165             
1 48233U 21031Z   26034.23389350  .00000225  00000+0  57227-3 0  9999
2 48233  87.9020 316.4160 0001584  89.1100 271.0211 13.14502776230764
ONEWEB-0199             
1 48234U 21031AA  26034.21803333  .00000225  00000+0  57121-3 0  9993
2 48234  87.9029 316.3993 0001665  74.2998 285.8315 13.14503036230664
ONEWEB-0203             
1 48235U 21031AB  26034.20850636  .00000071  00000+0  15784-3 0  9999
2 48235  87.9027 316.4002 0001466  81.0478 279.0818 13.14498902230672
ONEWEB-0197             
1 48236U 21031AC  26034.25912240 -.00000124  00000+0 -36889-3 0  9995
2 48236  87.9032 316.3900 0002017  73.3093 286.8258 13.14503101230598
ONEWEB-0194             
1 48237U 21031AD  26034.23864797  .00000218  00000+0  55266-3 0  9999
2 48237  87.9031 316.4112 0001541  72.9036 287.2263 13.14503953230762
ONEWEB-0193             
1 48238U 21031AE  26034.25450585 -.00000073  00000+0 -23015-3 0  9996
2 48238  87.9030 316.4007 0001451  66.2842 293.8440 13.14503002230716
ONEWEB-0191             
1 48239U 21031AF  26034.18948561 -.00000168  00000+0 -48721-3 0  9991
2 48239  87.9034 316.4073 0001756  75.7351 284.3974 13.14502700230566
ONEWEB-0195             
1 48240U 21031AG  26034.24260484  .00000170  00000+0  42274-3 0  9999
2 48240  87.9031 316.3946 0001673  91.4094 268.7227 13.14502913230552
ONEWEB-0201             
1 48241U 21031AH  26034.23084639  .00000284  00000+0  73255-3 0  9994
2 48241  87.9021 316.4287 0001999  83.1202 277.0155 13.14502243230785
ONEWEB-0207             
1 48242U 21031AJ  26034.21089388  .00000121  00000+0  29223-3 0  9995
2 48242  87.9029 316.4009 0001982  79.8812 280.2541 13.14503576230692
ONEWEB-0208             
1 48243U 21031AK  26034.19265147 -.00000231  00000+0 -65628-3 0  9995
2 48243  87.9030 316.4175 0001655  87.7525 272.3794 13.14502734230704
ONEWEB-0200             
1 48244U 21031AL  26034.23229686  .00000260  00000+0  66564-3 0  9999
2 48244  87.9030 316.3987 0001753  83.8529 276.2800 13.14502040230638
ONEWEB-0217             
1 48245U 21031AM  26034.24815708  .00000050  00000+0  99130-4 0  9990
2 48245  87.9034 316.3942 0001661  90.1757 269.9563 13.14502085230584
