[{"OBJECT_NAME":"ONEWEB-0181","OBJECT_ID":"2021-031W","EPOCH":"2026-02-03T04:53:25.169856","MEAN_MOTION":13.14503967,"ECCENTRICITY":0.00017154,"INCLINATION":87.9017,"RA_OF_ASC_NODE":316.4498,"ARG_OF_PERICENTER":85.1242,"MEAN_ANOMALY":275.0084,"EPHEMERIS_TYPE":0,"CLASSIFICATION_TYPE":"U","NORAD_CAT_ID":48230,"ELEMENT_SET_NO":999,"REV_AT_EPOCH":23063,"BSTAR":-0.00027107395,"MEAN_MOTION_DOT":-8.8e-7,"MEAN_MOTION_DDOT":0},{"OBJECT_NAME":"ONEWEB-0188","OBJECT_ID":"2021-031X","EPOCH":"2026-02-03T05:48:12.736512","MEAN_MOTION":13.1450204,"ECCENTRICITY":0.00017733,"INCLINATION":87.9022,"RA_OF_ASC_NODE":316.4401,"ARG_OF_PERICENTER":79.4405,"MEAN_ANOMALY":280.6924,"EPHEMERIS_TYPE":0,"CLASSIFICATION_TYPE":"U","NORAD_CAT_ID":48231,"ELEMENT_SET_NO":999,"REV_AT_EPOCH":23054,"BSTAR":0.00043044232,"MEAN_MOTION_DOT":1.72e-6,"MEAN_MOTION_DDOT":0},{"OBJECT_NAME":"ONEWEB-0220","OBJECT_ID":"2021-031Y","EPOCH":"2026-02-03T04:55:41.282688","MEAN_MOTION":13.14503045,"ECCENTRICITY":0.00019227,"INCLINATION":87.9033,"RA_OF_ASC_NODE":316.4021,"ARG_OF_PERICENTER":83.0505,"MEAN_ANOMALY":277.0843,"EPHEMERIS_TYPE":0,"CLASSIFICATION_TYPE":"U","NORAD_CAT_ID":48232,"ELEMENT_SET_NO":999,"REV_AT_EPOCH":23080,"BSTAR":-7.5253916e-5,"MEAN_MOTION_DOT":-1.5e-7,"MEAN_MOTION_DDOT":0},{"OBJECT_NAME":"ONEWEB-0165","OBJECT_ID":"2021-031Z","EPOCH":"2026-02-03T05:36:48.398400","MEAN_MOTION":13.14502776,"ECCENTRICITY":0.00015849,"INCLINATION":87.902,"RA_OF_ASC_NODE":316.416,"ARG_OF_PERICENTER":89.11,"MEAN_ANOMALY":271.0211,"EPHEMERIS_TYPE":0,"CLASSIFICATION_TYPE":"U","NORAD_CAT_ID":48233,"ELEMENT_SET_NO":999,"REV_AT_EPOCH":23076,"BSTAR":0.00057226883,"MEAN_MOTION_DOT":2.25e-6,"MEAN_MOTION_DDOT":0},{"OBJECT_NAME":"ONEWEB-0199","OBJECT_ID":"2021-031AA","EPOCH":"2026-02-03T05:13:58.079712","MEAN_MOTION":13.14503036,"ECCENTRICITY":0.00016653,"INCLINATION":87.9029,"RA_OF_ASC_NODE":316.3993,"ARG_OF_PERICENTER":74.2998,"MEAN_ANOMALY":285.8315,"EPHEMERIS_TYPE":0,"CLASSIFICATION_TYPE":"U","NORAD_CAT_ID":48234,"ELEMENT_SET_NO":999,"REV_AT_EPOCH":23066,"BSTAR":0.00057121018,"MEAN_MOTION_DOT":2.25e-6,"MEAN_MOTION_DDOT":0},{"OBJECT_NAME":"ONEWEB-0203","OBJECT_ID":"2021-031AB","EPOCH":"2026-02-03T05:00:14.949504","MEAN_MOTION":13.14498902,"ECCENTRICITY":0.00014665,"INCLINATION":87.9027,"RA_OF_ASC_NODE":316.4002,"ARG_OF_PERICENTER":81.0478,"MEAN_ANOMALY":279.0818,"EPHEMERIS_TYPE":0,"CLASSIFICATION_TYPE":"U","NORAD_CAT_ID":48235,"ELEMENT_SET_NO":999,"REV_AT_EPOCH":23067,"BSTAR":0.00015784188,"MEAN_MOTION_DOT":7.1e-7,"MEAN_MOTION_DDOT":0},{"OBJECT_NAME":"ONEWEB-0197","OBJECT_ID":"2021-031AC","EPOCH":"2026-02-03T06:13:08.175360","MEAN_MOTION":13.14503101,"ECCENTRICITY":0.00020172,"INCLINATION":87.9032,"RA_OF_ASC_NODE":316.39,"ARG_OF_PERICENTER":73.3093,"MEAN_ANOMALY":286.8258,"EPHEMERIS_TYPE":0,"CLASSIFICATION_TYPE":"U","NORAD_CAT_ID":48236,"ELEMENT_SET_NO":999,"REV_AT_EPOCH":23059,"BSTAR":-0.0003688893,"MEAN_MOTION_DOT":-1.24e-6,"MEAN_MOTION_DDOT":0},{"OBJECT_NAME":"ONEWEB-0194","OBJECT_ID":"2021-031AD","EPOCH":"2026-02-03T05:43:39.184608","MEAN_MOTION":13.14503953,"ECCENTRICITY":0.00015412,"INCLINATION":87.9031,"RA_OF_ASC_NODE":316.4112,"ARG_OF_PERICENTER":72.9036,"MEAN_ANOMALY":287.2263,"EPHEMERIS_TYPE":0,"CLASSIFICATION_TYPE":"U","NORAD_CAT_ID":48237,"ELEMENT_SET_NO":999,"REV_AT_EPOCH":23076,"BSTAR":0.00055266104,"MEAN_MOTION_DOT":2.18e-6,"MEAN_MOTION_DDOT":0},{"OBJECT_NAME":"ONEWEB-0193","OBJECT_ID":"2021-031AE","EPOCH":"2026-02-03T06:06:29.305440","MEAN_MOTION":13.14503002,"ECCENTRICITY":0.00014516,"INCLINATION":87.903,"RA_OF_ASC_NODE":316.4007,"ARG_OF_PERICENTER":66.2842,"MEAN_ANOMALY":293.844,"EPHEMERIS_TYPE":0,"CLASSIFICATION_TYPE":"U","NORAD_CAT_ID":48238,"ELEMENT_SET_NO":999,"REV_AT_EPOCH":23071,"BSTAR":-0.00023015185,"MEAN_MOTION_DOT":-7.3e-7,"MEAN_MOTION_DDOT":0},{"OBJECT_NAME":"ONEWEB-0191","OBJECT_ID":"2021-031AF","EPOCH":"2026-02-03T04:32:51.556704","MEAN_MOTION":13.145027,"ECCENTRICITY":0.00017565,"INCLINATION":87.9034,"RA_OF_ASC_NODE":316.4073,"ARG_OF_PERICENTER":75.7351,"MEAN_ANOMALY":284.3974,"EPHEMERIS_TYPE":0,"CLASSIFICATION_TYPE":"U","NORAD_CAT_ID":48239,"ELEMENT_SET_NO":999,"REV_AT_EPOCH":23056,"BSTAR":-0.0004872139,"MEAN_MOTION_DOT":-1.68e-6,"MEAN_MOTION_DDOT":0},{"OBJECT_NAME":"ONEWEB-0195","OBJECT_ID":"2021-031AG","EPOCH":"2026-02-03T05:49:21.058176","MEAN_MOTION":13.14502913,"ECCENTRICITY":0.00016735,"INCLINATION":87.9031,"RA_OF_ASC_NODE":316.3946,"ARG_OF_PERICENTER":91.4094,"MEAN_ANOMALY":268.7227,"EPHEMERIS_TYPE":0,"CLASSIFICATION_TYPE":"U","NORAD_CAT_ID":48240,"ELEMENT_SET_NO":999,"REV_AT_EPOCH":23055,"BSTAR":0.0004227409,"MEAN_MOTION_DOT":1.7e-6,"MEAN_MOTION_DDOT":0},{"OBJECT_NAME":"ONEWEB-0201","OBJECT_ID":"2021-031AH","EPOCH":"2026-02-03T05:32:25.128096","MEAN_MOTION":13.14502243,"ECCENTRICITY":0.00019996,"INCLINATION":87.9021,"RA_OF_ASC_NODE":316.4287,"ARG_OF_PERICENTER":83.1202,"MEAN_ANOMALY":277.0155,"EPHEMERIS_TYPE":0,"CLASSIFICATION_TYPE":"U","NORAD_CAT_ID":48241,"ELEMENT_SET_NO":999,"REV_AT_EPOCH":23078,"BSTAR":0.00073255235,"MEAN_MOTION_DOT":2.84e-6,"MEAN_MOTION_DDOT":0},{"OBJECT_NAME":"ONEWEB-0207","OBJECT_ID":"2021-031AJ","EPOCH":"2026-02-03T05:03:41.231232","MEAN_MOTION":13.14503576,"ECCENTRICITY":0.00019825,"INCLINATION":87.9029,"RA_OF_ASC_NODE":316.4009,"ARG_OF_PERICENTER":79.8812,"MEAN_ANOMALY":280.2541,"EPHEMERIS_TYPE":0,"CLASSIFICATION_TYPE":"U","NORAD_CAT_ID":48242,"ELEMENT_SET_NO":999,"REV_AT_EPOCH":23069,"BSTAR":0.00029222855,"MEAN_MOTION_DOT":1.21e-6,"MEAN_MOTION_DDOT":0},{"OBJECT_NAME":"ONEWEB-0208","OBJECT_ID":"2021-031AK","EPOCH":"2026-02-03T04:37:25.087008","MEAN_MOTION":13.14502734,"ECCENTRICITY":0.00016559,"INCLINATION":87.903,"RA_OF_ASC_NODE":316.4175,"ARG_OF_PERICENTER":87.7525,"MEAN_ANOMALY":272.3794,"EPHEMERIS_TYPE":0,"CLASSIFICATION_TYPE":"U","NORAD_CAT_ID":48243,"ELEMENT_SET_NO":999,"REV_AT_EPOCH":23070,"BSTAR":-0.00065628314,"MEAN_MOTION_DOT":-2.31e-6,"MEAN_MOTION_DDOT":0},{"OBJECT_NAME":"ONEWEB-0200","OBJECT_ID":"2021-031AL","EPOCH":"2026-02-03T05:34:30.448704","MEAN_MOTION":13.1450204,"ECCENTRICITY":0.00017538,"INCLINATION":87.903,"RA_OF_ASC_NODE":316.3987,"ARG_OF_PERICENTER":83.8529,"MEAN_ANOMALY":276.28,"EPHEMERIS_TYPE":0,"CLASSIFICATION_TYPE":"U","NORAD_CAT_ID":48244,"ELEMENT_SET_NO":999,"REV_AT_EPOCH":23063,"BSTAR":0.00066563799,"MEAN_MOTION_DOT":2.6e-6,"MEAN_MOTION_DDOT":0},{"OBJECT_NAME":"ONEWEB-0217","OBJECT_ID":"2021-031AM","EPOCH":"2026-02-03T05:57:20.771712","MEAN_MOTION":13.14502085,"ECCENTRICITY":0.00016612,"INCLINATION":87.9034,"RA_OF_ASC_NODE":316.3942,"ARG_OF_PERICENTER":90.1757,"MEAN_ANOMALY":269.9563,"EPHEMERIS_TYPE":0,"CLASSIFICATION_TYPE":"U","NORAD_CAT_ID":48245,"ELEMENT_SET_NO":999,"REV_AT_EPOCH":23058,"BSTAR":9.9130307e-5,"MEAN_MOTION_DOT":5.0e-7,"MEAN_MOTION_DDOT":0}]
